en:
  faker:
    aviation:
      aircraft:
        airplane: [ Airbus A220-100, Airbus A220-300, Airbus A318, Airbus A319, Airbus A320, Airbus A320neo, Airbus A321, Airbus A321neo, Airbus A330-200, Airbus A330-200F, Airbus A330-300, Airbus A330-800neo, Airbus A330-900neo, Airbus A340, Airbus A340-300, Airbus A340-500, Airbus A340-600, Airbus A350, Airbus A350-900, Airbus A350-1000, Airbus A380, Airbus A380-800, Antonov An-12, Antonov An-24, Antonov An-26, Antonov An-28, Antonov An-30, Antonov An-32, Antonov An-72, Antonov An-124 Ruslan, Antonov An-140, Antonov An-148, Antonov An-158, Antonov An-225 Mriya, Boeing 707, Boeing 717, Boeing 727, Boeing 737, Boeing 737-100, Boeing 737-200, Boeing 737-700, Boeing 737-800,  Boeing 737-900, Boeing 747, Boeing 747-400, Boeing 757, Boeing 767, Boeing 777, Boeing 787, Boeing 747-8, Boeing 737 MAX, Bombardier CS100, Bombardier CS300, Bristol TYPE 175 BRITANNIA, British Aerospace BAe ATP, British Aerospace BAe.146 STATESMAN, Canadair CL-44, de Havilland D.H.106 COMET, de Havilland D.H.121 TRIDENT, Douglas DC-3, Douglas DC-8-71, Douglas DC-8-72, Douglas DC-9, Douglas DC-10, EMB-314 Super Tucano, Embraer EMB-120 BRASILIA, Embraer EMB-120 BRASILIA ADVANCED, Embraer EMB-145 AMAZON, Embraer ERJ-135, Embraer ERJ-145, Embraer ERJ-170, Embraer ERJ-175, Embraer ERJ-190, Embraer ERJ-195, Fokker FOKKER 70, Fokker F-28-6000 FELLOWSHIP, Ilyushin Il-14, Ilyushin Il-18, Ilyushin Il-62, Ilyushin Il-62M, Ilyushin Il-86, Ilyushin Il-96,Ilyushin Il-96M, Let L-410 Turbolet, Lockheed L-649 CONSTELLATION, Lockheed L-749 CONSTELLATION, Lockheed L-1011-1 TRISTAR, Lockheed L-1011-500 TRISTAR, Martin 2-0-2, Martin 4-0-4, McDonnell Douglas MD11, McDonnell Douglas MD80, McDonnell Douglas MD81, McDonnell Douglas MD82, McDonnell Douglas MD83, McDonnell Douglas MD87, McDonnell Douglas MD88, McDonnell Douglas MD90, Pacaero (Lear) LEARSTAR, Saab 90 SCANDIA, Sud-Aviation CARAVELLE 1, Sud-Aviation CARAVELLE 12, Sukhoi SSJ, Tupolev Tu-104,  Tupolev Tu-114, Tupolev Tu-134, Tupolev Tu-144, Tupolev Tu-154, Tupolev Tu-154M Tupolev Tu-214, Vickers V.950 VANGUARD, Yakovlev Yak-40, Yakovlev Yak-42 ]
        warplane: [ A-6F Intruder II, A-7P Corsair II, A-10, A-50, A-100, АС-130U Spooky, AIR SENTRY, ALPHA JET, AT-802U, В-1A LANCER, В-1B LANCER, В-2 SPIRIT, B-52, Be-12, BN-2 Maritime Defender, C-295MPA Persuader, CF-18 Hornet, СN-235МPA, CР-140 AURORA, D.H.98 MOSQUITO NF Mk.38, D.H.100 VAMPIRE F.1(4), D.H.112 SEA VENOM, D.H.113 VAMPIRE NF.10, Do.228MP MARITIME PATROL, JAVELIN, JAGUAR GR.3, J-11, J-15, J-16, J-20, J-22 ORAO, J-31, J.35J DRAKEN, JAS.39 Gripen, JH-7A Flying Leopard II, E-2C HAWKEYE-2000, E-2D ADVANCED HAWKEYE, E-3A/B SENTRY, E.25 MIRLO, F-7PG, F-22 Raptor, F-35 Lightning II, F-4 Phantom II, F-5A FREEDOM FIGHTER, F-8A(B) CRUSADER, F8U-1 CRUSADER, F-14D Super Tomcat, F-15 Eagle, F-16 Fighting Falcon, F/A-18A Hornet, F/A-18B Hornet, F/A-18C Hornet, F/A-18D Hornet, F-86 SABRE, F-100 SUPER SABRE, F-101 Voodoo, F-102 DELTA DAGGER, F-104 STARFIGHTER, F-105 THUNDERCHIEF, F-106 DELTA DART, F-111, F-117 NIGHTHAWK, G-4 SUPER GALEB, GULFSTREAM III (SMA-3), H-6D, HAWK Mk.127 LIFT, HAWK Mk.200, HARRIER GR.5, HARRIER GR.7, HARRIER GR.9, IA-63 PAMPA, IA-66, Il-38N, O2-337 Sentry, KFIR-2000, M.346, MC-27J Praetorian, METEOR F.4, METEOR F.8, MiG-15, MiG-19, MiG-21, MiG-23, MiG-25, MiG-27, MiG-29, MiG-31, MIRAGE F.1EQ, MIRAGE 2000, MIRAGE 2000E, MIRAGE 2000N, Nimrod MRA4, Q-5L FANTAN, P-8 POSEIDON, Rafale, Super Etendard, Supermarine SCIMITAR, Su-7, Su-15, Su-17M4, Su-22, Su-24, Su-24M, Su-25, Su-27, Su-30SM,  Su-30MK, Su-33, Su-34, Su-35S, Su-57 TORNADO GR.4, Typhoon, Tu-16, Tu-22, Tu-22M, Tu-142M3, Tu-95МСМ, Tu-160, Yak-38, Yak-130, Y-8X ]
        cargo: [ Aero Spacelines GUPPY-201,Aero Spacelines B-377 PREGNANT GUPPY, Aero Spacelines B-377 SUPER GUPPY, Airbus A3ХХ-F, Airbus SATIC A300-600ST BELUGA, Airbus A330-743L BELUGA XL,  Airbus A400M, Alenia C-27J, Antonov An-22, Antonov An-26B, Antonov An-70, Antonov An-124 Ruslan, Antonov An-124-100 Ruslan, Antonov An-124-200 Ruslan, Antonov An-124-210 Ruslan, Antonov A-132, Antonov An-225 Mriya, Boeing 747-400 FREIGHTER, Boeing 747-8 FREIGHTER, Boeing 747 DREAMLIFTER, Boeing 757-200 FREIGHTER, Boeing 767-300 FREIGHTER, Boeing С-18, Breguet Br.761 DEUX PONTS, British Aerospace BAe.146 STATESMAN, CASA С-207 AZOR, CASA C-295, Dornier Do.228, Douglas DC-6A, Douglas DC-6C, Embraer KC-390, Hawker Siddeley HS-748 ANDOVER, Ilyushin Il-76MD-90A, Ilyushin Il-96T, Lockheed С-5M SUPER GALAXY, Lockheed С-130J, Lockheed C-141C, Lockheed L-100 HERCULES, Lockheed L-1011, Lockheed TRISTAR, McDonnell Douglas MD11F, McDonnell Douglas С-17 GLOBEMASTER III, Scaled Composites STRATOLAUNCH, Shorts SC.5 BELFAST, Shorts С-23 SHERPA, Shorts SC.7 SKYVAN, SIAI-Marchetti SF.600 CANGURO, Vickers-Armstrong VC.10, Wolfsberg CORVUS 1F ]
        general: [ Aero AE-45S SUPER AERO, Aero AE-145, Aero L-60 BRIGADYR, Aero-East-Europe SILA 450C, Aeroprakt A-20, Aeroprakt A-22, Aeroprakt A-32, Air Tractor AT-500, Air Tractor AT-600, Air Tractor AT-800, Antonov An-2, Antonov An-3, Antonov An-4, Antonov An-14, Aviat HUSKY, Beechcraft Baron, Beechcraft Queen Air, Britten-Norman BN-2 ISLANDER, Britten-Norman BN-2A Mk.III TRISLANDER, Cessna-150, Cessna-152, Cessna-172, Cessna-172S, Cessna-177, Cessna-182, Cessna-208, Cessna 336/337 Skymaster, Cessna Model 441 Conquest, Cirrus SR20, Cirrus SR22, Chaika L-42, Chaika S-44, de Havilland Canada DHC-2 Beaver, de Havilland Australia DHA-3 DROVER, de Havilland Canada DHC-6 Twin Otter, Diamond Aircraft DA-42 TWIN STAR, Diamond Aircraft DA-62, Dornier Do.27, Dornier Do.28, Embraer EMB-711 CORISCO,Embraer EMB-712 TUPI,Embraer EMB-720 MINUANO,Embraer EMB-721 SERTANEJO,Embraer EMB-810 SENECA, Embraer EMB-820 NAVAJO, Fly Synthesis TEXAN, Fly Synthesis WALLABY, FMA IA.46 RANQUEL, ICP VENTURA, ICP VIMANA, Issoire APM-40 SIMBA, Issoire APM-50 NALA, Ikarus C22 FOX, Ikarus C42, Ikarus C52, Ilyushin Il-103, InterPlane SKYBOY, Jabiru J230, Jora JORA, Junqua IBIS, L-40 Meta Sokol, Let L-200 МОRAVA, Liliental Kh-32 Bekas, Murphy MOOSE, Murphy REBEL, Murphy YUKON, Mitsubishi МU-2, NIK Sigma-7, Nord N.3400 NORDBARBE, Pilatus P-4, Pilatus PC-6 (TURBO) PORTER, Pilatus PC-8 TWIN PORTER, Pilatus PC-12, Pipistrel ALPHA TRAINER, Pipistrel PANTHERA, Pipistrel SINUS, Pipistrel VIRUS, Piper PA-28 PILOT 100, Piper M600 (PA-46-600TP), Piper PA-60-700 AEROSTAR, Polikarpov Po-2, Pottier P.130 COCCINELLE, Pottier P.220 KOALA, Robin R.3000, Robin ATL, Roko Aero NG-4, SAAB 91 SAFIR, SAAB (Malmo) MFI-15 SAFARI, Seabird SEEKER, SOCATA MS.880 RALLYE, Sauper J300 JOKER, SOCATA TB-200 TOBAGO, SOCATA(Daher) TBM-850, SOCATA(Daher) TBM-910, SOCATA(Daher) TBM-940, SOCATA(Daher) TBM-960, Sigma-5, Sigma-6, Stolp SA-750 ACRODUSTER TOO, Stolp SA-900 V-STAR, Sukhoi Su-26, Sukhoi Su-29, Tecnam P2002 SIERRA, TIPS TIPSY NIPPER, TL Ultralight TL-2000 STING,TL Ultralight TL-3000 SIRIUS, UTVA UTVA-60H, UTVA UTVA-66, Van's RV-12, Van's RV-14, Vidor ASSO IX WARRIOR,Vidor ASSO XI SPRINT, Wassmer WA-50, Wheeler EXPRESS S-90, Wheeler EXPRESS 2000, Wild DOUBLEENDER, Wolfsberg SPARROW ML, Yakovlev Yak-10, Yakovlev Yak-12, Yakovlev Yak-50, Yakovlev Yak-52, Yakovlev Yak-54, Yakovlev Yak-55, Zenair (Zenith) STOL CH-701, Zenair (Zenith) STOL CH-750, Zenair (Zenith) STOL CH-801, Zmaj Fizir FN, Zlín Z.43, Zlín Z.50, Zlín Z.143 ]
        army_helicopter: [ A.109K HIRUNDO, А.129 MANGUSTA, А.139 LBH, AH-1Z Viper, AS.565 PANTHER, AS.332 Super Puma Mk.2, AS.532A2 Cougar Mk.2, НAC TIGRE, НAP GERFAUT, SA.342 GAZELLE, SA.365M DAUPHIN II, Вo.105, V-22 Osprey, MD 500 Defender, AH64 Apache, WAH-64D APACHE AH.1, АН-1W, LYNX АН Mk.1, LYNX АН Mk.7, LYNX АН Mk.9, UH-72 Lakota, HH-60 Pave Hawk, UH-60 Black Hawk, Bell 206, CH-53 Sea Stallion, CH-47 Chinook, CH-46 Sea Knight, OH-6 Cayuse, Mi-8AMTSh, Mi-24, Mi-28, Mi-35, PAH-2 TIGER, RAN-66 COMANCHE, Ka-27, Ka-50, Ka-52, WZ-9, Z-11WB ]
        civil_helicopter: [ Airbus H125, Airbus H130, Airbus H135, Airbus H145, Airbus H155, Airbus H160, Airbus H175, Airbus H215, Airbus H225, AgustaWestland AW.159, AgustaWestland AW.169, AgustaWestland AW.189, Mil Mi-2, Mil Mi-8, Mil Mi-26, Mil Mi-171, Mil Mi-38, Robinson R66 Turbine, Robinson R44 Raven II, Robinson R44 Raven I, Robinson R44 Cadet, Robinson R22 Beta II, Sikorsky S-76, Sikorsky S-92, Kamov Ka-26, Kamov Ka-226 ]
      airport: [ "AGAF", "AGAT", "AYLA", "AYKY", "BGGD", "ULAA", "BIIS", "UEEE", "URWW", "SGAS", "SBSP", "SVMI", "SCRM", "VABB", "ZSPD", "YPPH", "KSFO", "MMLT", "UWKI", "UWWW", "UUBB", "UUOO", "USRR", "USDB", "UELL", "BIBA", "BIPA", "CYAB", "CYBA", "CYKA", "DAAD", "DIBU", "EBAW", "EBBR", "EBCI", "EBKT", "EBLG", "EBOS", "ELLZ", "ELUS", "ENAL", "ENAN", "ENAS", "FAMG", "FAMO", "FAPA", "FAPH", "FAPG", "FAMW", "GANR", "GCLA", "GCHI", "GASK", "GAYE", "GBYD", "GCFV", "HADD", "HADR", "KAAA", "KAPA", "LBIA", "LBPD", "LBPS", "MHAM", "MHCA", "MHCC", "MHCG", "NFCI", "NFCS", "NFFA", "OIBB", "OIAW", "OIAJ", "OIAA", "PAAK", "PAAL", "PAAM", "PAAN", "RJAA", "RJAF", "SAAC", "SAAG", "SAAJ", "TDCF", "TDPD", "TFFA", "VEAP", "VEBT", "VEAB", "VEAN", "WA44", "WAAA", "WAAB", "YABA", "YAGD", "YALA", "ZBAA", "ZBAD", "ZBAL", "ZBAR", "ZBBB", "RJAH" ]
      metar: [ "METAR: ULAA 011400Z 17004MPS 120V220 9999 SCT030 18/06 Q1002 R08/190068 NOSIG RMK QFE750/1001",
               "METAR: BIIS 101100Z 05007KT 9999 FEW025 07/M01 Q1018",
               "METAR: UEEE 151700Z 18003MPS CAVOK 19/11 Q1006 R23L/09//60 NOSIG RMK QFE746",
               "METAR: URWW 230800Z 02007MPS 9999 BKN050CB 21/08 Q1010 R06/010070 TEMPO -TSRA BKN030CB",
               "METAR: VABB 302100Z 02007KT 2100 -RA SCT010 SCT015 FEW030CB OVC080 26/25 Q1002 TEMPO 1500 +RA",
               "METAR: ZSPD 311400Z 12002MPS 080V190 9999 -SHRA NSC 23/22 Q1008 NOSIG",
               "METAR: YPPH 011730Z 01004KT CAVOK 09/08 Q1021 NOSIG",
               "METAR: KSFO 011356Z 25007KT 10SM FEW008 SCT013 SCT200 13/11 A3006 RMK AO2 SLP180 T01330106",
               "METAR: MMLT 031340Z 16006KT 8SM FEW040 SCT100 28/26 A2984 RMK 8/130 HZY",
               "METAR: NTAA 140330Z 11004KT 9999 FEW023 SCT300 22/17 Q1014 NOSIG",
               "METAR: NCRG 130400Z AUTO 10011G23KT 070V160 9999 -RA FEW012/// SCT021/// BKN043/// 20/17 Q1020",
               "METAR: PTSA 120350Z 25009KT 10SM SCT022 SCT130 BKN300 31/25 A2976 RMK LAST",
               "METAR: YSSY 110700Z 14009KT 9999 VCSH FEW018 SCT022 BKN034 14/13 Q1035 NOSIG",
               "METAR: AGGH 102330Z 11002KT 9999 FEW014 23/23 Q1011",
               "METAR: WSSS 092200Z 15008KT 130V190 9999 FEW020 BKN300 29/24 Q1009 NOSIG",
               "METAR: UIAA 082000Z AUTO 32002MPS 9999 NCD 16/10 Q1009 RMK QFE698/0931",
               "METAR: ZSPD 071300Z 13004MPS CAVOK 23/22 Q1001 NOSIG",
               "METAR: ZYHB 061600Z 20002MPS 4000 BR SCT033 23/20 Q0999 BECMG TL1420 23008MPS -TSRA",
               "METAR: VVNB 310100Z 13008KT 9999 FEW030 32/25 Q1000 NOSIG",
               "METAR: OIII 300500Z 18006KT CAVOK 38/02 Q1006 A2973 NOSIG",
               "METAR: VNKT 291250Z 36004KT 7000 FEW010 SCT030 BKN100 25/22 Q1003 NOSIG",
               "METAR: ZGKL 280600Z 32002MPS 290V350 9999 SCT043 OVC066 26/25 Q1002 RERA NOSIG",
               "METAR: UAAA 271730Z 03003MPS 9999 FEW050 30/10 Q1007 R88/CLRD65 NOSIG",
               "METAR: HECA 261900Z 34008KT CAVOK 33/17 Q1007 NOSIG",
               "METAR: GOOY 251100Z 24008KT 9999 BKN011 27/22 Q1014",
               "METAR: OSDI 241330Z 20012KT CAVOK 37/07 Q1006",
               "METAR: ORBI 231400Z 30016KT CAVOK 45/08 Q0997 NOSIG",
               "METAR: DAAG 221300Z 02012KT 360V070 6000 FEW026 SCT200 34/24 Q1015",
               "METAR: DNIB 210500Z 26004KT 9999 SCT009 24/23 Q1013",
               "METAR: FKYS 202140Z 26005KT 230V300 9999 BKN013 26/22 Q1018 BECMG BKN016",
               "METAR: FACT 190900Z 01008KT 340V050 CAVOK 17/08 Q1024 NOSIG",
               "METAR: DIAP 181230Z 22009KT 8000 SCT012 BKN040 27/24 Q1014 TEMPO BKN012",
               "METAR: SCRM 171300Z 34008KT 0100 FZFG OVC003 M03/M03 Q1006",
               "METAR: SBSP 161800Z 18008KT 4000 -RA BKN007 SCT015 OVC100 13/11 Q1019",
               "METAR: SVMI 151204Z 14003KT 9999 SCT016 26/23 Q1013",
               "METAR: SCIP 011500Z 33009KT 9999 SCT020 20/17 Q1016 NOSIG",
               "METAR: SKBO 021200Z 05007KT 9999 FEW020 SCT200 11/08 A3037 NOSIG",
               "METAR: SGAS 031230Z 19007KT 130V220 CAVOK 11/03 Q1028",
               "METAR: MMCU 041040Z 00000KT 10SM SCT030 BKN080 BKN200 20/15 A3016 RMK 8/572 RTS",
               "METAR: MMTJ 051141Z 00000KT 5SM OVC013 16/14 A3000 RMK SLP161 54000 918 8/5// HZY" ]
      IATA_airline: [ "AM", "AC", "QK", "NZ", "TN", "AS", "NH", "AA", "CP", "BG", "CI", "DL", "LY", "EK", "EY", "FX", "AY", "HA", "JL", "NU", "LJ", "KE", "LA", "LO", "LH", "MH", "MM", "QF", "QR", "SK", "SQ", "BC", "WN", "NK", "TK", "UA", "VA", "WS", "CA" ]
      ICAO_airline: [ "AMX", "ACA", "JZA", "ANZ", "THT", "XAX", "ASA", "ANA", "AAL", "CPZ", "BBC", "CAL", "DAL", "DAE", "ELY", "UAE", "ETD", "FDX", "FIN", "HAL", "JAL", "JTA", "JBU", "JNA", "KAL", "LAN", "LOT", "DLH", "MAS", "APJ", "QFA", "QTR", "SAS", "SIA", "SKY", "SWA", "SEJ", "NKS", "THY", "UAL", "VOZ", "WJA" ]
      airline: [ "Aeromexico", "Air Canada", "Air New Zealand", "Air Tahiti Nui", "AirAsia X", "Alaska Airlines", "All Nippon Airways", "American Airlines", "American Eagle", "Biman Bangladesh Airlines", "China Airlines", "Delta Air Lines", "DHL Aero Expreso", "El Al", "Emirates", "Etihad Airways", "FedEx Express", "Finnair", "Hawaiian Airlines", "Japan Airlines", "Japan Transocean Air", "JetBlue Airways", "Jin Air", "Korean Air Lines", "LATAM Chile", "LOT Polish Airlines", "Lufthansa", "Malaysia Airlines", "Peach Aviation", "Qantas", "Qatar Airways", "Scandinavian Airlines", "Singapore Airlines", "Skymark Airlines", "Southwest Airlines", "SpiceJet", "Spirit Airlines", "Turkish Airlines", "United Airlines", "UPS Airlines", "Virgin Australia", "WestJet", "Air China" ]
